IRIDIUM 171             
1 43929U 19002H   24232.52312658  .00000172  00000+0  54427-4 0  9999
2 43929  86.3937 272.3929 0002005  98.1183 262.0240 14.34214668293409
IRIDIUM 170             
1 43930U 19002J   24233.35340775  .00002747  00000+0  43113-3 0  9993
2 43930  86.6051 271.8539 0002341  96.7925 263.3559 14.72300417301297
IRIDIUM 167             
1 43931U 19002K   24233.21447451  .00000705  00000+0  24474-3 0  9999
2 43931  86.3927 271.8870 0002087  92.5061 267.6374 14.34213296293509
IRIDIUM 181             
1 56726U 23068S   24233.22490694  .00001238  00000+0  36015-3 0  9996
2 56726  86.8673 328.7418 0001889  88.6027 271.5391 14.43569366 66373
IRIDIUM 177             
1 56727U 23068T   24232.50024027  .00003881  00000+0  50738-3 0  9994
2 56727  86.1950 285.3005 0002202  86.0454 274.1019 14.80218248 67740
IRIDIUM 174             
1 56728U 23068U   24232.49482151  .00004044  00000+0  52884-3 0  9995
2 56728  86.1956 285.4117 0001885  87.2590 272.8846 14.80218542 67742
IRIDIUM 178             
1 56729U 23068V   24232.55699839  .00003908  00000+0  51101-3 0  9995
2 56729  86.5789 305.8573 0002022  96.3475 263.7976 14.80209467 67751
IRIDIUM 179             
1 56730U 23068W   24233.22742007  .00003900  00000+0  50917-3 0  9994
2 56730  86.6807 310.5135 0002195  89.5738 270.5735 14.80280624 67853
